{"type":"FeatureCollection","features":[{"type":"Feature","properties":{"cell_id":1,"buildings":92,"population_proxy":256.97,"households_proxy":82.41,"high_hazard_buildings":92,"stratum1_buildings":92,"mean_slope_deg":25.57,"baseline_stress":0.7551,"roof_footprint_m2":3029,"vehicular_access_m":164.1,"pedestrian_access_m":128.2,"open_space_proxy":0.5267,"rwh_opportunity":0.8654,"drainage_corridor_proxy":0.9743,"restoration_opportunity":0.3848,"selected_projects":"rwh"},"geometry":{"type":"Polygon","coordinates":[[[-75.53967032695867,6.250363268573004],[-75.53967381756016,6.251086541424069],[-75.54039660284177,6.25108304776712],[-75.54039311124947,6.250359775323381],[-75.53967032695867,6.250363268573004]]]}},{"type":"Feature","properties":{"cell_id":2,"buildings":77,"population_proxy":233.93,"households_proxy":65.97,"high_hazard_buildings":77,"stratum1_buildings":77,"mean_slope_deg":26.74,"baseline_stress":0.7618,"roof_footprint_m2":2356.3,"vehicular_access_m":65,"pedestrian_access_m":236.5,"open_space_proxy":0.6318,"rwh_opportunity":0.6732,"drainage_corridor_proxy":1,"restoration_opportunity":0.4827,"selected_projects":"drainage"},"geometry":{"type":"Polygon","coordinates":[[[-75.53894754225598,6.250366760831179],[-75.53895103186665,6.251090034089455],[-75.53967381756016,6.251086541424069],[-75.53967032695867,6.250363268573004],[-75.53894754225598,6.250366760831179]]]}},{"type":"Feature","properties":{"cell_id":28,"buildings":72,"population_proxy":230.12,"households_proxy":71.61,"high_hazard_buildings":72,"stratum1_buildings":72,"mean_slope_deg":30.53,"baseline_stress":0.7787,"roof_footprint_m2":2212.2,"vehicular_access_m":7.6,"pedestrian_access_m":10.6,"open_space_proxy":0.6544,"rwh_opportunity":0.6321,"drainage_corridor_proxy":0.0607,"restoration_opportunity":0.5708,"selected_projects":"rwh"},"geometry":{"type":"Polygon","coordinates":[[[-75.54040708009067,6.253252864967582],[-75.54041057333099,6.25397613732414],[-75.54113336216501,6.253972641045854],[-75.54112986793342,6.253249369096739],[-75.54040708009067,6.253252864967582]]]}},{"type":"Feature","properties":{"cell_id":29,"buildings":89,"population_proxy":201.12,"households_proxy":66.14,"high_hazard_buildings":89,"stratum1_buildings":80,"mean_slope_deg":29.37,"baseline_stress":0.7754,"roof_footprint_m2":2315.7,"vehicular_access_m":220.3,"pedestrian_access_m":33.8,"open_space_proxy":0.6382,"rwh_opportunity":0.6616,"drainage_corridor_proxy":0.847,"restoration_opportunity":0.5355,"selected_projects":"rwh"},"geometry":{"type":"Polygon","coordinates":[[[-75.53968429183591,6.253256359846514],[-75.53968778408495,6.253979632610403],[-75.54041057333099,6.25397613732414],[-75.54040708009067,6.253252864967582],[-75.53968429183591,6.253256359846514]]]}},{"type":"Feature","properties":{"cell_id":35,"buildings":76,"population_proxy":311.89,"households_proxy":94.16,"high_hazard_buildings":76,"stratum1_buildings":75,"mean_slope_deg":31.82,"baseline_stress":0.7864,"roof_footprint_m2":2839.7,"vehicular_access_m":246.4,"pedestrian_access_m":30.7,"open_space_proxy":0.5563,"rwh_opportunity":0.8113,"drainage_corridor_proxy":0.9237,"restoration_opportunity":0.5058,"selected_projects":"rwh, drainage"},"geometry":{"type":"Polygon","coordinates":[[[-75.54041057333099,6.25397613732414],[-75.54041406698332,6.254699409658898],[-75.54113685680873,6.254695912973165],[-75.54113336216501,6.253972641045854],[-75.54041057333099,6.25397613732414]]]}}]}
