{
"type": "FeatureCollection",
"name": "milp_plan_10credits",
"crs": { "type": "name", "properties": { "name": "urn:ogc:def:crs:OGC:1.3:CRS84" } },
"features": [
{ "type": "Feature", "properties": { "cell_id": 1, "buildings": 92, "population_proxy": 256.97, "households_proxy": 82.41, "high_hazard_buildings": 92, "stratum1_buildings": 92, "mean_slope_deg": 25.57, "baseline_stress": 0.7551, "roof_footprint_m2": 3029.0, "vehicular_access_m": 164.1, "pedestrian_access_m": 128.2, "open_space_proxy": 0.5267, "rwh_opportunity": 0.8654, "drainage_corridor_proxy": 0.9743, "restoration_opportunity": 0.3848, "selected_projects": "drainage" }, "geometry": { "type": "Polygon", "coordinates": [ [ [ -75.539670326958671, 6.250363268573004 ], [ -75.539673817560157, 6.251086541424069 ], [ -75.540396602841767, 6.25108304776712 ], [ -75.540393111249472, 6.250359775323381 ], [ -75.539670326958671, 6.250363268573004 ] ] ] } },
{ "type": "Feature", "properties": { "cell_id": 2, "buildings": 77, "population_proxy": 233.93, "households_proxy": 65.97, "high_hazard_buildings": 77, "stratum1_buildings": 77, "mean_slope_deg": 26.74, "baseline_stress": 0.7618, "roof_footprint_m2": 2356.3, "vehicular_access_m": 65.0, "pedestrian_access_m": 236.5, "open_space_proxy": 0.6318, "rwh_opportunity": 0.6732, "drainage_corridor_proxy": 1.0, "restoration_opportunity": 0.4827, "selected_projects": "drainage" }, "geometry": { "type": "Polygon", "coordinates": [ [ [ -75.538947542255983, 6.250366760831179 ], [ -75.538951031866645, 6.251090034089455 ], [ -75.539673817560157, 6.251086541424069 ], [ -75.539670326958671, 6.250363268573004 ], [ -75.538947542255983, 6.250366760831179 ] ] ] } },
{ "type": "Feature", "properties": { "cell_id": 35, "buildings": 76, "population_proxy": 311.89, "households_proxy": 94.16, "high_hazard_buildings": 76, "stratum1_buildings": 75, "mean_slope_deg": 31.82, "baseline_stress": 0.7864, "roof_footprint_m2": 2839.7, "vehicular_access_m": 246.4, "pedestrian_access_m": 30.7, "open_space_proxy": 0.5563, "rwh_opportunity": 0.8113, "drainage_corridor_proxy": 0.9237, "restoration_opportunity": 0.5058, "selected_projects": "rwh, drainage" }, "geometry": { "type": "Polygon", "coordinates": [ [ [ -75.540410573330988, 6.25397613732414 ], [ -75.540414066983317, 6.254699409658898 ], [ -75.541136856808734, 6.254695912973165 ], [ -75.541133362165013, 6.253972641045854 ], [ -75.540410573330988, 6.25397613732414 ] ] ] } }
]
}
