{"type":"FeatureCollection","name":"planning_cells","crs":{"type":"name","properties":{"name":"urn:ogc:def:crs:OGC:1.3:CRS84"}},"features":[{"type":"Feature","properties":{"cell_id":0,"buildings":76,"population_proxy":150.73,"households_proxy":48.94,"high_hazard_buildings":45,"stratum1_buildings":76,"mean_slope_deg":26.59,"baseline_stress":0.6718,"roof_footprint_m2":2417.6,"vehicular_access_m":144.0,"pedestrian_access_m":147.0,"open_space_proxy":0.6222,"rwh_opportunity":0.6907,"drainage_corridor_proxy":0.97,"restoration_opportunity":0.4727},"geometry":{"type":"Polygon","coordinates":[[[-75.54039311124947,6.250359775323381],[-75.54039660284177,6.25108304776712],[-75.54111938771139,6.25107955311861],[-75.54111589512829,6.25035628108231],[-75.54039311124947,6.250359775323381]]]}},{"type":"Feature","properties":{"cell_id":1,"buildings":92,"population_proxy":256.97,"households_proxy":82.41,"high_hazard_buildings":92,"stratum1_buildings":92,"mean_slope_deg":25.57,"baseline_stress":0.7551,"roof_footprint_m2":3029.0,"vehicular_access_m":164.1,"pedestrian_access_m":128.2,"open_space_proxy":0.5267,"rwh_opportunity":0.8654,"drainage_corridor_proxy":0.9743,"restoration_opportunity":0.3848},"geometry":{"type":"Polygon","coordinates":[[[-75.53967032695867,6.250363268573004],[-75.53967381756016,6.251086541424069],[-75.54039660284177,6.25108304776712],[-75.54039311124947,6.250359775323381],[-75.53967032695867,6.250363268573004]]]}},{"type":"Feature","properties":{"cell_id":2,"buildings":77,"population_proxy":233.93,"households_proxy":65.97,"high_hazard_buildings":77,"stratum1_buildings":77,"mean_slope_deg":26.74,"baseline_stress":0.7618,"roof_footprint_m2":2356.3,"vehicular_access_m":65.0,"pedestrian_access_m":236.5,"open_space_proxy":0.6318,"rwh_opportunity":0.6732,"drainage_corridor_proxy":1,"restoration_opportunity":0.4827},"geometry":{"type":"Polygon","coordinates":[[[-75.53894754225598,6.250366760831179],[-75.53895103186665,6.251090034089455],[-75.53967381756016,6.251086541424069],[-75.53967032695867,6.250363268573004],[-75.53894754225598,6.250366760831179]]]}},{"type":"Feature","properties":{"cell_id":3,"buildings":62,"population_proxy":167.06,"households_proxy":44.75,"high_hazard_buildings":62,"stratum1_buildings":62,"mean_slope_deg":25.18,"baseline_stress":0.7527,"roof_footprint_m2":1858.8,"vehicular_access_m":73.2,"pedestrian_access_m":210.1,"open_space_proxy":0.7096,"rwh_opportunity":0.5311,"drainage_corridor_proxy":0.9443,"restoration_opportunity":0.5105},"geometry":{"type":"Polygon","coordinates":[[[-75.53822475714153,6.250370252097905],[-75.53822824576137,6.251093525763274],[-75.53895103186665,6.251090034089455],[-75.53894754225598,6.250366760831179],[-75.53822475714153,6.250370252097905]]]}},{"type":"Feature","properties":{"cell_id":4,"buildings":40,"population_proxy":159.24,"households_proxy":51.89,"high_hazard_buildings":30,"stratum1_buildings":40,"mean_slope_deg":18.8,"baseline_stress":0.6633,"roof_footprint_m2":1178.5,"vehicular_access_m":0.0,"pedestrian_access_m":151.8,"open_space_proxy":0.8159,"rwh_opportunity":0.3367,"drainage_corridor_proxy":0.506,"restoration_opportunity":0.4383},"geometry":{"type":"Polygon","coordinates":[[[-75.53750197161543,6.250373742373176],[-75.53750545924446,6.251097016445525],[-75.53822824576137,6.251093525763274],[-75.53822475714153,6.250370252097905],[-75.53750197161543,6.250373742373176]]]}},{"type":"Feature","properties":{"cell_id":5,"buildings":3,"population_proxy":13.87,"households_proxy":4.73,"high_hazard_buildings":3,"stratum1_buildings":3,"mean_slope_deg":15.0,"baseline_stress":0.696,"roof_footprint_m2":136.3,"vehicular_access_m":43.2,"pedestrian_access_m":0.0,"open_space_proxy":0.9787,"rwh_opportunity":0.0389,"drainage_corridor_proxy":0.144,"restoration_opportunity":0.4194},"geometry":{"type":"Polygon","coordinates":[[[-75.53677918567779,6.250377231656989],[-75.536782672316,6.251100506136202],[-75.53750545924446,6.251097016445525],[-75.53750197161543,6.250373742373176],[-75.53677918567779,6.250377231656989]]]}},{"type":"Feature","properties":{"cell_id":6,"buildings":0,"population_proxy":0.0,"households_proxy":0.0,"high_hazard_buildings":0,"stratum1_buildings":0,"mean_slope_deg":0.0,"baseline_stress":0.0,"roof_footprint_m2":0.0,"vehicular_access_m":25.0,"pedestrian_access_m":10.0,"open_space_proxy":1.0,"rwh_opportunity":0.0,"drainage_corridor_proxy":0.1167,"restoration_opportunity":0.0},"geometry":{"type":"Polygon","coordinates":[[[-75.53659809995145,6.250378105701401],[-75.53660158634142,6.251101380282529],[-75.536782672316,6.251100506136202],[-75.53677918567779,6.250377231656989],[-75.53659809995145,6.250378105701401]]]}},{"type":"Feature","properties":{"cell_id":7,"buildings":25,"population_proxy":36.27,"households_proxy":11.42,"high_hazard_buildings":23,"stratum1_buildings":25,"mean_slope_deg":26.45,"baseline_stress":0.7428,"roof_footprint_m2":828.6,"vehicular_access_m":195.0,"pedestrian_access_m":87.7,"open_space_proxy":0.8705,"rwh_opportunity":0.2367,"drainage_corridor_proxy":0.9423,"restoration_opportunity":0.6578},"geometry":{"type":"Polygon","coordinates":[[[-75.54039660284177,6.25108304776712],[-75.54040009484606,6.251806320189068],[-75.54112288070661,6.251802825133114],[-75.54111938771139,6.25107955311861],[-75.54039660284177,6.25108304776712]]]}},{"type":"Feature","properties":{"cell_id":8,"buildings":18,"population_proxy":33.42,"households_proxy":9.86,"high_hazard_buildings":18,"stratum1_buildings":18,"mean_slope_deg":29.35,"baseline_stress":0.7764,"roof_footprint_m2":633.4,"vehicular_access_m":31.3,"pedestrian_access_m":30.9,"open_space_proxy":0.901,"rwh_opportunity":0.181,"drainage_corridor_proxy":0.2073,"restoration_opportunity":0.7556},"geometry":{"type":"Polygon","coordinates":[[[-75.53967381756016,6.251086541424069],[-75.53967730857352,6.251809814253345],[-75.54040009484606,6.251806320189068],[-75.54039660284177,6.25108304776712],[-75.53967381756016,6.251086541424069]]]}},{"type":"Feature","properties":{"cell_id":9,"buildings":40,"population_proxy":99.17,"households_proxy":25.79,"high_hazard_buildings":40,"stratum1_buildings":40,"mean_slope_deg":20.59,"baseline_stress":0.7268,"roof_footprint_m2":1192.0,"vehicular_access_m":33.9,"pedestrian_access_m":159.6,"open_space_proxy":0.8138,"rwh_opportunity":0.3406,"drainage_corridor_proxy":0.645,"restoration_opportunity":0.4787},"geometry":{"type":"Polygon","coordinates":[[[-75.53895103186665,6.251090034089455],[-75.53895452188908,6.251813307325941],[-75.53967730857352,6.251809814253345],[-75.53967381756016,6.251086541424069],[-75.53895103186665,6.251090034089455]]]}},{"type":"Feature","properties":{"cell_id":10,"buildings":48,"population_proxy":167.32,"households_proxy":45.93,"high_hazard_buildings":48,"stratum1_buildings":47,"mean_slope_deg":23.52,"baseline_stress":0.7437,"roof_footprint_m2":1320.7,"vehicular_access_m":1.9,"pedestrian_access_m":412.2,"open_space_proxy":0.7936,"rwh_opportunity":0.3773,"drainage_corridor_proxy":1,"restoration_opportunity":0.5333},"geometry":{"type":"Polygon","coordinates":[[[-75.53822824576137,6.251093525763274],[-75.53823173479287,6.251816799406856],[-75.53895452188908,6.251813307325941],[-75.53895103186665,6.251090034089455],[-75.53822824576137,6.251093525763274]]]}},{"type":"Feature","properties":{"cell_id":11,"buildings":41,"population_proxy":157.0,"households_proxy":48.53,"high_hazard_buildings":41,"stratum1_buildings":41,"mean_slope_deg":25.3,"baseline_stress":0.7537,"roof_footprint_m2":1012.0,"vehicular_access_m":20.8,"pedestrian_access_m":83.0,"open_space_proxy":0.8419,"rwh_opportunity":0.2891,"drainage_corridor_proxy":0.346,"restoration_opportunity":0.6086},"geometry":{"type":"Polygon","coordinates":[[[-75.53750545924446,6.251097016445525],[-75.537508947285,6.251820290496087],[-75.53823173479287,6.251816799406856],[-75.53822824576137,6.251093525763274],[-75.53750545924446,6.251097016445525]]]}},{"type":"Feature","properties":{"cell_id":12,"buildings":4,"population_proxy":10.9,"households_proxy":3.72,"high_hazard_buildings":4,"stratum1_buildings":4,"mean_slope_deg":20.16,"baseline_stress":0.7249,"roof_footprint_m2":173.0,"vehicular_access_m":87.4,"pedestrian_access_m":8.0,"open_space_proxy":0.973,"rwh_opportunity":0.0494,"drainage_corridor_proxy":0.318,"restoration_opportunity":0.5604},"geometry":{"type":"Polygon","coordinates":[[[-75.536782672316,6.251100506136202],[-75.5367861593656,6.251823780593627],[-75.537508947285,6.251820290496087],[-75.53750545924446,6.251097016445525],[-75.536782672316,6.251100506136202]]]}},{"type":"Feature","properties":{"cell_id":13,"buildings":3,"population_proxy":0.0,"households_proxy":0.0,"high_hazard_buildings":2,"stratum1_buildings":3,"mean_slope_deg":22.15,"baseline_stress":0.5921,"roof_footprint_m2":85.3,"vehicular_access_m":0.0,"pedestrian_access_m":21.6,"open_space_proxy":0.9468,"rwh_opportunity":0.0244,"drainage_corridor_proxy":0.072,"restoration_opportunity":0.5992},"geometry":{"type":"Polygon","coordinates":[[[-75.53660158634142,6.251101380282529],[-75.53660507314277,6.251824654841872],[-75.5367861593656,6.251823780593627],[-75.536782672316,6.251100506136202],[-75.53660158634142,6.251101380282529]]]}},{"type":"Feature","properties":{"cell_id":14,"buildings":68,"population_proxy":175.23,"households_proxy":62.57,"high_hazard_buildings":64,"stratum1_buildings":68,"mean_slope_deg":28.51,"baseline_stress":0.7589,"roof_footprint_m2":2123.9,"vehicular_access_m":133.4,"pedestrian_access_m":218.8,"open_space_proxy":0.6681,"rwh_opportunity":0.6068,"drainage_corridor_proxy":1,"restoration_opportunity":0.5442},"geometry":{"type":"Polygon","coordinates":[[[-75.54040009484606,6.251806320189068],[-75.54040358726236,6.252529592589222],[-75.54112637411394,6.252526097125825],[-75.54112288070661,6.251802825133114],[-75.54040009484606,6.251806320189068]]]}},{"type":"Feature","properties":{"cell_id":15,"buildings":53,"population_proxy":142.99,"households_proxy":48.3,"high_hazard_buildings":50,"stratum1_buildings":53,"mean_slope_deg":22.16,"baseline_stress":0.7238,"roof_footprint_m2":1637.4,"vehicular_access_m":218.4,"pedestrian_access_m":82.0,"open_space_proxy":0.7442,"rwh_opportunity":0.4678,"drainage_corridor_proxy":1,"restoration_opportunity":0.4712},"geometry":{"type":"Polygon","coordinates":[[[-75.53967730857352,6.251809814253345],[-75.53968079999876,6.252533087060828],[-75.54040358726236,6.252529592589222],[-75.54040009484606,6.251806320189068],[-75.53967730857352,6.251809814253345]]]}},{"type":"Feature","properties":{"cell_id":16,"buildings":17,"population_proxy":43.95,"households_proxy":13.49,"high_hazard_buildings":15,"stratum1_buildings":16,"mean_slope_deg":16.31,"baseline_stress":0.6779,"roof_footprint_m2":490.3,"vehicular_access_m":37.7,"pedestrian_access_m":6.3,"open_space_proxy":0.9234,"rwh_opportunity":0.1401,"drainage_corridor_proxy":0.1467,"restoration_opportunity":0.4303},"geometry":{"type":"Polygon","coordinates":[[[-75.53895452188908,6.251813307325941],[-75.53895801232329,6.252536580540636],[-75.53968079999876,6.252533087060828],[-75.53967730857352,6.251809814253345],[-75.53895452188908,6.251813307325941]]]}},{"type":"Feature","properties":{"cell_id":17,"buildings":19,"population_proxy":0.0,"households_proxy":0.0,"high_hazard_buildings":19,"stratum1_buildings":19,"mean_slope_deg":24.95,"baseline_stress":0.7517,"roof_footprint_m2":601.1,"vehicular_access_m":36.8,"pedestrian_access_m":17.3,"open_space_proxy":0.9061,"rwh_opportunity":0.1717,"drainage_corridor_proxy":0.1803,"restoration_opportunity":0.6459},"geometry":{"type":"Polygon","coordinates":[[[-75.53823173479287,6.251816799406856],[-75.53823522423603,6.252540073028648],[-75.53895801232329,6.252536580540636],[-75.53895452188908,6.251813307325941],[-75.53823173479287,6.251816799406856]]]}},{"type":"Feature","properties":{"cell_id":18,"buildings":47,"population_proxy":23.36,"households_proxy":8.96,"high_hazard_buildings":47,"stratum1_buildings":47,"mean_slope_deg":20.55,"baseline_stress":0.7271,"roof_footprint_m2":1315.9,"vehicular_access_m":129.4,"pedestrian_access_m":41.8,"open_space_proxy":0.7944,"rwh_opportunity":0.376,"drainage_corridor_proxy":0.5707,"restoration_opportunity":0.4664},"geometry":{"type":"Polygon","coordinates":[[[-75.537508947285,6.251820290496087],[-75.5375124357371,6.252543564524857],[-75.53823522423603,6.252540073028648],[-75.53823173479287,6.251816799406856],[-75.537508947285,6.251820290496087]]]}},{"type":"Feature","properties":{"cell_id":19,"buildings":11,"population_proxy":1.09,"households_proxy":0.49,"high_hazard_buildings":7,"stratum1_buildings":11,"mean_slope_deg":13.66,"baseline_stress":0.5314,"roof_footprint_m2":383.5,"vehicular_access_m":107.7,"pedestrian_access_m":117.4,"open_space_proxy":0.9401,"rwh_opportunity":0.1096,"drainage_corridor_proxy":0.7503,"restoration_opportunity":0.3669},"geometry":{"type":"Polygon","coordinates":[[[-75.5367861593656,6.251823780593627],[-75.53678964682665,6.252547055029265],[-75.5375124357371,6.252543564524857],[-75.537508947285,6.251820290496087],[-75.5367861593656,6.251823780593627]]]}},{"type":"Feature","properties":{"cell_id":20,"buildings":5,"population_proxy":0.0,"households_proxy":0.0,"high_hazard_buildings":0,"stratum1_buildings":5,"mean_slope_deg":18.71,"baseline_stress":0.2848,"roof_footprint_m2":303.1,"vehicular_access_m":10.0,"pedestrian_access_m":51.0,"open_space_proxy":0.8109,"rwh_opportunity":0.0866,"drainage_corridor_proxy":0.2033,"restoration_opportunity":0.4335},"geometry":{"type":"Polygon","coordinates":[[[-75.53660507314277,6.251824654841872],[-75.53660856035552,6.252547929379427],[-75.53678964682665,6.252547055029265],[-75.5367861593656,6.251823780593627],[-75.53660507314277,6.251824654841872]]]}},{"type":"Feature","properties":{"cell_id":21,"buildings":63,"population_proxy":147.24,"households_proxy":55.31,"high_hazard_buildings":63,"stratum1_buildings":63,"mean_slope_deg":33.85,"baseline_stress":0.7991,"roof_footprint_m2":1802.0,"vehicular_access_m":85.0,"pedestrian_access_m":132.2,"open_space_proxy":0.7184,"rwh_opportunity":0.5149,"drainage_corridor_proxy":0.724,"restoration_opportunity":0.6948},"geometry":{"type":"Polygon","coordinates":[[[-75.54040358726236,6.252529592589222],[-75.54040708009067,6.253252864967582],[-75.54112986793342,6.253249369096739],[-75.54112637411394,6.252526097125825],[-75.54040358726236,6.252529592589222]]]}},{"type":"Feature","properties":{"cell_id":22,"buildings":66,"population_proxy":129.25,"households_proxy":49.28,"high_hazard_buildings":66,"stratum1_buildings":65,"mean_slope_deg":29.73,"baseline_stress":0.7785,"roof_footprint_m2":2091.1,"vehicular_access_m":190.3,"pedestrian_access_m":105.4,"open_space_proxy":0.6733,"rwh_opportunity":0.5975,"drainage_corridor_proxy":0.9857,"restoration_opportunity":0.5719},"geometry":{"type":"Polygon","coordinates":[[[-75.53968079999876,6.252533087060828],[-75.53968429183591,6.253256359846514],[-75.54040708009067,6.253252864967582],[-75.54040358726236,6.252529592589222],[-75.53968079999876,6.252533087060828]]]}},{"type":"Feature","properties":{"cell_id":23,"buildings":31,"population_proxy":121.7,"households_proxy":40.47,"high_hazard_buildings":29,"stratum1_buildings":31,"mean_slope_deg":22.42,"baseline_stress":0.7236,"roof_footprint_m2":1144.6,"vehicular_access_m":125.7,"pedestrian_access_m":14.3,"open_space_proxy":0.8212,"rwh_opportunity":0.327,"drainage_corridor_proxy":0.4667,"restoration_opportunity":0.526},"geometry":{"type":"Polygon","coordinates":[[[-75.53895801232329,6.252536580540636],[-75.53896150316926,6.253259853733536],[-75.53968429183591,6.253256359846514],[-75.53968079999876,6.252533087060828],[-75.53895801232329,6.252536580540636]]]}},{"type":"Feature","properties":{"cell_id":24,"buildings":7,"population_proxy":33.27,"households_proxy":10.04,"high_hazard_buildings":5,"stratum1_buildings":7,"mean_slope_deg":21.31,"baseline_stress":0.6696,"roof_footprint_m2":365.5,"vehicular_access_m":58.9,"pedestrian_access_m":12.4,"open_space_proxy":0.9429,"rwh_opportunity":0.1044,"drainage_corridor_proxy":0.2377,"restoration_opportunity":0.5741},"geometry":{"type":"Polygon","coordinates":[[[-75.53823522423603,6.252540073028648],[-75.53823871409084,6.253263346628647],[-75.53896150316926,6.253259853733536],[-75.53895801232329,6.252536580540636],[-75.53823522423603,6.252540073028648]]]}},{"type":"Feature","properties":{"cell_id":25,"buildings":31,"population_proxy":18.68,"households_proxy":8.09,"high_hazard_buildings":31,"stratum1_buildings":31,"mean_slope_deg":22.27,"baseline_stress":0.7367,"roof_footprint_m2":961.1,"vehicular_access_m":148.6,"pedestrian_access_m":42.4,"open_space_proxy":0.8498,"rwh_opportunity":0.2746,"drainage_corridor_proxy":0.6367,"restoration_opportunity":0.5407},"geometry":{"type":"Polygon","coordinates":[[[-75.5375124357371,6.252543564524857],[-75.53751592460075,6.253266838531839],[-75.53823871409084,6.253263346628647],[-75.53823522423603,6.252540073028648],[-75.5375124357371,6.252543564524857]]]}},{"type":"Feature","properties":{"cell_id":26,"buildings":9,"population_proxy":6.08,"households_proxy":2.75,"high_hazard_buildings":7,"stratum1_buildings":9,"mean_slope_deg":18.14,"baseline_stress":0.6656,"roof_footprint_m2":367.1,"vehicular_access_m":137.5,"pedestrian_access_m":0.0,"open_space_proxy":0.9426,"rwh_opportunity":0.1049,"drainage_corridor_proxy":0.4583,"restoration_opportunity":0.4885},"geometry":{"type":"Polygon","coordinates":[[[-75.53678964682665,6.252547055029265],[-75.53679313469911,6.253270329443114],[-75.53751592460075,6.253266838531839],[-75.5375124357371,6.252543564524857],[-75.53678964682665,6.252547055029265]]]}},{"type":"Feature","properties":{"cell_id":27,"buildings":0,"population_proxy":0.0,"households_proxy":0.0,"high_hazard_buildings":0,"stratum1_buildings":0,"mean_slope_deg":0.0,"baseline_stress":0.0,"roof_footprint_m2":0.0,"vehicular_access_m":29.0,"pedestrian_access_m":0.0,"open_space_proxy":1.0,"rwh_opportunity":0.0,"drainage_corridor_proxy":0.0967,"restoration_opportunity":0.0},"geometry":{"type":"Polygon","coordinates":[[[-75.53660856035552,6.252547929379427],[-75.53661204797965,6.253271203895191],[-75.53679313469911,6.253270329443114],[-75.53678964682665,6.252547055029265],[-75.53660856035552,6.252547929379427]]]}},{"type":"Feature","properties":{"cell_id":28,"buildings":72,"population_proxy":230.12,"households_proxy":71.61,"high_hazard_buildings":72,"stratum1_buildings":72,"mean_slope_deg":30.53,"baseline_stress":0.7787,"roof_footprint_m2":2212.2,"vehicular_access_m":7.6,"pedestrian_access_m":10.6,"open_space_proxy":0.6544,"rwh_opportunity":0.6321,"drainage_corridor_proxy":0.0607,"restoration_opportunity":0.5708},"geometry":{"type":"Polygon","coordinates":[[[-75.54040708009067,6.253252864967582],[-75.54041057333099,6.25397613732414],[-75.54113336216501,6.253972641045854],[-75.54112986793342,6.253249369096739],[-75.54040708009067,6.253252864967582]]]}},{"type":"Feature","properties":{"cell_id":29,"buildings":89,"population_proxy":201.12,"households_proxy":66.14,"high_hazard_buildings":89,"stratum1_buildings":80,"mean_slope_deg":29.37,"baseline_stress":0.7754,"roof_footprint_m2":2315.7,"vehicular_access_m":220.3,"pedestrian_access_m":33.8,"open_space_proxy":0.6382,"rwh_opportunity":0.6616,"drainage_corridor_proxy":0.847,"restoration_opportunity":0.5355},"geometry":{"type":"Polygon","coordinates":[[[-75.53968429183591,6.253256359846514],[-75.53968778408495,6.253979632610403],[-75.54041057333099,6.25397613732414],[-75.54040708009067,6.253252864967582],[-75.53968429183591,6.253256359846514]]]}},{"type":"Feature","properties":{"cell_id":30,"buildings":43,"population_proxy":104.26,"households_proxy":33.73,"high_hazard_buildings":43,"stratum1_buildings":43,"mean_slope_deg":24.73,"baseline_stress":0.7505,"roof_footprint_m2":1324.8,"vehicular_access_m":6.6,"pedestrian_access_m":119.5,"open_space_proxy":0.793,"rwh_opportunity":0.3785,"drainage_corridor_proxy":0.4203,"restoration_opportunity":0.5603},"geometry":{"type":"Polygon","coordinates":[[[-75.53896150316926,6.253259853733536],[-75.538964994427,6.253983126904641],[-75.53968778408495,6.253979632610403],[-75.53968429183591,6.253256359846514],[-75.53896150316926,6.253259853733536]]]}},{"type":"Feature","properties":{"cell_id":31,"buildings":11,"population_proxy":53.73,"households_proxy":17.1,"high_hazard_buildings":11,"stratum1_buildings":9,"mean_slope_deg":20.01,"baseline_stress":0.7241,"roof_footprint_m2":475.5,"vehicular_access_m":229.5,"pedestrian_access_m":0.0,"open_space_proxy":0.9257,"rwh_opportunity":0.1359,"drainage_corridor_proxy":0.765,"restoration_opportunity":0.5292},"geometry":{"type":"Polygon","coordinates":[[[-75.53823871409084,6.253263346628647],[-75.53824220435729,6.253986620206849],[-75.538964994427,6.253983126904641],[-75.53896150316926,6.253259853733536],[-75.53823871409084,6.253263346628647]]]}},{"type":"Feature","properties":{"cell_id":32,"buildings":12,"population_proxy":16.68,"households_proxy":6.0,"high_hazard_buildings":10,"stratum1_buildings":10,"mean_slope_deg":20.8,"baseline_stress":0.6925,"roof_footprint_m2":400.7,"vehicular_access_m":144.6,"pedestrian_access_m":1.8,"open_space_proxy":0.9374,"rwh_opportunity":0.1145,"drainage_corridor_proxy":0.488,"restoration_opportunity":0.5571},"geometry":{"type":"Polygon","coordinates":[[[-75.53751592460075,6.253266838531839],[-75.53751941387591,6.253990112517025],[-75.53824220435729,6.253986620206849],[-75.53823871409084,6.253263346628647],[-75.53751592460075,6.253266838531839]]]}},{"type":"Feature","properties":{"cell_id":33,"buildings":3,"population_proxy":0.85,"households_proxy":0.38,"high_hazard_buildings":3,"stratum1_buildings":3,"mean_slope_deg":17.95,"baseline_stress":0.7125,"roof_footprint_m2":151.7,"vehicular_access_m":82.8,"pedestrian_access_m":29.8,"open_space_proxy":0.9763,"rwh_opportunity":0.0433,"drainage_corridor_proxy":0.3753,"restoration_opportunity":0.5007},"geometry":{"type":"Polygon","coordinates":[[[-75.53679313469911,6.253270329443114],[-75.536796622983,6.253993603835167],[-75.53751941387591,6.253990112517025],[-75.53751592460075,6.253266838531839],[-75.53679313469911,6.253270329443114]]]}},{"type":"Feature","properties":{"cell_id":34,"buildings":1,"population_proxy":0.0,"households_proxy":0.0,"high_hazard_buildings":0,"stratum1_buildings":1,"mean_slope_deg":2.09,"baseline_stress":0.4077,"roof_footprint_m2":59.5,"vehicular_access_m":2.5,"pedestrian_access_m":0.0,"open_space_proxy":0.9629,"rwh_opportunity":0.017,"drainage_corridor_proxy":0.0083,"restoration_opportunity":0.0575},"geometry":{"type":"Polygon","coordinates":[[[-75.53661204797965,6.253271203895191],[-75.53661553601518,6.253994478389164],[-75.536796622983,6.253993603835167],[-75.53679313469911,6.253270329443114],[-75.53661204797965,6.253271203895191]]]}},{"type":"Feature","properties":{"cell_id":35,"buildings":76,"population_proxy":311.89,"households_proxy":94.16,"high_hazard_buildings":76,"stratum1_buildings":75,"mean_slope_deg":31.82,"baseline_stress":0.7864,"roof_footprint_m2":2839.7,"vehicular_access_m":246.4,"pedestrian_access_m":30.7,"open_space_proxy":0.5563,"rwh_opportunity":0.8113,"drainage_corridor_proxy":0.9237,"restoration_opportunity":0.5058},"geometry":{"type":"Polygon","coordinates":[[[-75.54041057333099,6.25397613732414],[-75.54041406698332,6.254699409658898],[-75.54113685680873,6.254695912973165],[-75.54113336216501,6.253972641045854],[-75.54041057333099,6.25397613732414]]]}},{"type":"Feature","properties":{"cell_id":36,"buildings":57,"population_proxy":249.04,"households_proxy":76.73,"high_hazard_buildings":55,"stratum1_buildings":54,"mean_slope_deg":32.07,"baseline_stress":0.7815,"roof_footprint_m2":1796.8,"vehicular_access_m":254.7,"pedestrian_access_m":0.0,"open_space_proxy":0.7192,"rwh_opportunity":0.5134,"drainage_corridor_proxy":0.849,"restoration_opportunity":0.659},"geometry":{"type":"Polygon","coordinates":[[[-75.53968778408495,6.253979632610403],[-75.53969127674587,6.254702905352493],[-75.54041406698332,6.254699409658898],[-75.54041057333099,6.25397613732414],[-75.53968778408495,6.253979632610403]]]}},{"type":"Feature","properties":{"cell_id":37,"buildings":51,"population_proxy":92.64,"households_proxy":28.23,"high_hazard_buildings":28,"stratum1_buildings":40,"mean_slope_deg":23.23,"baseline_stress":0.6447,"roof_footprint_m2":1514.1,"vehicular_access_m":102.5,"pedestrian_access_m":144.4,"open_space_proxy":0.7634,"rwh_opportunity":0.4326,"drainage_corridor_proxy":0.823,"restoration_opportunity":0.5067},"geometry":{"type":"Polygon","coordinates":[[[-75.538964994427,6.253983126904641],[-75.53896848609654,6.254706400053946],[-75.53969127674587,6.254702905352493],[-75.53968778408495,6.253979632610403],[-75.538964994427,6.253983126904641]]]}},{"type":"Feature","properties":{"cell_id":38,"buildings":71,"population_proxy":100.98,"households_proxy":33.64,"high_hazard_buildings":71,"stratum1_buildings":62,"mean_slope_deg":19.24,"baseline_stress":0.7198,"roof_footprint_m2":2147.9,"vehicular_access_m":0.0,"pedestrian_access_m":365.8,"open_space_proxy":0.6644,"rwh_opportunity":0.6137,"drainage_corridor_proxy":1,"restoration_opportunity":0.3652},"geometry":{"type":"Polygon","coordinates":[[[-75.53824220435729,6.253986620206849],[-75.53824569503543,6.254709893763254],[-75.53896848609654,6.254706400053946],[-75.538964994427,6.253983126904641],[-75.53824220435729,6.253986620206849]]]}},{"type":"Feature","properties":{"cell_id":39,"buildings":63,"population_proxy":165.19,"households_proxy":56.26,"high_hazard_buildings":38,"stratum1_buildings":60,"mean_slope_deg":19.22,"baseline_stress":0.6339,"roof_footprint_m2":1935.6,"vehicular_access_m":34.4,"pedestrian_access_m":297.6,"open_space_proxy":0.6976,"rwh_opportunity":0.553,"drainage_corridor_proxy":1,"restoration_opportunity":0.3831},"geometry":{"type":"Polygon","coordinates":[[[-75.53751941387591,6.253990112517025],[-75.53752290356266,6.254713386480414],[-75.53824569503543,6.254709893763254],[-75.53824220435729,6.253986620206849],[-75.53751941387591,6.253990112517025]]]}},{"type":"Feature","properties":{"cell_id":40,"buildings":17,"population_proxy":7.07,"households_proxy":2.63,"high_hazard_buildings":0,"stratum1_buildings":17,"mean_slope_deg":17.58,"baseline_stress":0.4945,"roof_footprint_m2":342.4,"vehicular_access_m":0.0,"pedestrian_access_m":80.0,"open_space_proxy":0.9465,"rwh_opportunity":0.0978,"drainage_corridor_proxy":0.2667,"restoration_opportunity":0.4754},"geometry":{"type":"Polygon","coordinates":[[[-75.536796622983,6.253993603835167],[-75.53680011167832,6.254716878205425],[-75.53752290356266,6.254713386480414],[-75.53751941387591,6.253990112517025],[-75.536796622983,6.253993603835167]]]}},{"type":"Feature","properties":{"cell_id":41,"buildings":0,"population_proxy":0.0,"households_proxy":0.0,"high_hazard_buildings":0,"stratum1_buildings":0,"mean_slope_deg":0.0,"baseline_stress":0.0,"roof_footprint_m2":0.0,"vehicular_access_m":28.5,"pedestrian_access_m":7.4,"open_space_proxy":1.0,"rwh_opportunity":0.0,"drainage_corridor_proxy":0.1197,"restoration_opportunity":0.0},"geometry":{"type":"Polygon","coordinates":[[[-75.53661553601518,6.253994478389164],[-75.5366190244621,6.25471775286134],[-75.53680011167832,6.254716878205425],[-75.536796622983,6.253993603835167],[-75.53661553601518,6.253994478389164]]]}},{"type":"Feature","properties":{"cell_id":42,"buildings":25,"population_proxy":82.21,"households_proxy":23.9,"high_hazard_buildings":25,"stratum1_buildings":25,"mean_slope_deg":31.06,"baseline_stress":0.7651,"roof_footprint_m2":737.2,"vehicular_access_m":48.8,"pedestrian_access_m":34.3,"open_space_proxy":0.628,"rwh_opportunity":0.2106,"drainage_corridor_proxy":0.277,"restoration_opportunity":0.5573},"geometry":{"type":"Polygon","coordinates":[[[-75.54041406698332,6.254699409658898],[-75.54041514897158,6.254923390657315],[-75.54113793910403,6.254919893845404],[-75.54113685680873,6.254695912973165],[-75.54041406698332,6.254699409658898]]]}},{"type":"Feature","properties":{"cell_id":43,"buildings":7,"population_proxy":34.16,"households_proxy":10.51,"high_hazard_buildings":7,"stratum1_buildings":7,"mean_slope_deg":37.34,"baseline_stress":0.8211,"roof_footprint_m2":364.2,"vehicular_access_m":57.3,"pedestrian_access_m":0.0,"open_space_proxy":0.8162,"rwh_opportunity":0.1041,"drainage_corridor_proxy":0.191,"restoration_opportunity":0.8162},"geometry":{"type":"Polygon","coordinates":[[[-75.53969127674587,6.254702905352493],[-75.53969235842712,6.25492688647705],[-75.54041514897158,6.254923390657315],[-75.54041406698332,6.254699409658898],[-75.53969127674587,6.254702905352493]]]}},{"type":"Feature","properties":{"cell_id":44,"buildings":13,"population_proxy":34.25,"households_proxy":10.84,"high_hazard_buildings":8,"stratum1_buildings":10,"mean_slope_deg":19.81,"baseline_stress":0.6143,"roof_footprint_m2":579.5,"vehicular_access_m":25.1,"pedestrian_access_m":52.9,"open_space_proxy":0.7076,"rwh_opportunity":0.1656,"drainage_corridor_proxy":0.26,"restoration_opportunity":0.4005},"geometry":{"type":"Polygon","coordinates":[[[-75.53896848609654,6.254706400053946],[-75.53896956747074,6.254930381304609],[-75.53969235842712,6.25492688647705],[-75.53969127674587,6.254702905352493],[-75.53896848609654,6.254706400053946]]]}},{"type":"Feature","properties":{"cell_id":45,"buildings":17,"population_proxy":39.4,"households_proxy":13.21,"high_hazard_buildings":17,"stratum1_buildings":17,"mean_slope_deg":18.92,"baseline_stress":0.7117,"roof_footprint_m2":536.3,"vehicular_access_m":0.0,"pedestrian_access_m":167.4,"open_space_proxy":0.7294,"rwh_opportunity":0.1532,"drainage_corridor_proxy":0.558,"restoration_opportunity":0.3943},"geometry":{"type":"Polygon","coordinates":[[[-75.53824569503543,6.254709893763254],[-75.53824677610258,6.254933875139987],[-75.53896956747074,6.254930381304609],[-75.53896848609654,6.254706400053946],[-75.53824569503543,6.254709893763254]]]}},{"type":"Feature","properties":{"cell_id":46,"buildings":4,"population_proxy":4.63,"households_proxy":1.73,"high_hazard_buildings":4,"stratum1_buildings":2,"mean_slope_deg":27.62,"baseline_stress":0.7666,"roof_footprint_m2":77.4,"vehicular_access_m":0.0,"pedestrian_access_m":79.9,"open_space_proxy":0.9609,"rwh_opportunity":0.0221,"drainage_corridor_proxy":0.2663,"restoration_opportunity":0.7583},"geometry":{"type":"Polygon","coordinates":[[[-75.53752290356266,6.254713386480414],[-75.53752398432277,6.254937367983183],[-75.53824677610258,6.254933875139987],[-75.53824569503543,6.254709893763254],[-75.53752290356266,6.254713386480414]]]}},{"type":"Feature","properties":{"cell_id":47,"buildings":0,"population_proxy":0.0,"households_proxy":0.0,"high_hazard_buildings":0,"stratum1_buildings":0,"mean_slope_deg":0.0,"baseline_stress":0.0,"roof_footprint_m2":0.0,"vehicular_access_m":0.0,"pedestrian_access_m":0.0,"open_space_proxy":1.0,"rwh_opportunity":0.0,"drainage_corridor_proxy":0.0,"restoration_opportunity":0.0},"geometry":{"type":"Polygon","coordinates":[[[-75.53680011167832,6.254716878205425],[-75.53680119213139,6.254940859834189],[-75.53752398432277,6.254937367983183],[-75.53752290356266,6.254713386480414],[-75.53680011167832,6.254716878205425]]]}},{"type":"Feature","properties":{"cell_id":48,"buildings":0,"population_proxy":0.0,"households_proxy":0.0,"high_hazard_buildings":0,"stratum1_buildings":0,"mean_slope_deg":0.0,"baseline_stress":0.0,"roof_footprint_m2":0.0,"vehicular_access_m":0.0,"pedestrian_access_m":0.0,"open_space_proxy":1.0,"rwh_opportunity":0.0,"drainage_corridor_proxy":0.0,"restoration_opportunity":0.0},"geometry":{"type":"Polygon","coordinates":[[[-75.5366190244621,6.25471775286134],[-75.53662010483826,6.254941734521667],[-75.53680119213139,6.254940859834189],[-75.53680011167832,6.254716878205425],[-75.5366190244621,6.25471775286134]]]}}]}